[{"OBJECT_NAME":"IRIDIUM 124","OBJECT_ID":"2017-039H","EPOCH":"2026-03-04T07:02:59.256096","MEAN_MOTION":14.4326944,"ECCENTRICITY":0.00021057,"INCLINATION":86.4539,"RA_OF_ASC_NODE":334.2292,"ARG_OF_PERICENTER":84.0452,"MEAN_ANOMALY":276.0989,"EPHEMERIS_TYPE":0,"CLASSIFICATION_TYPE":"U","NORAD_CAT_ID":42810,"ELEMENT_SET_NO":999,"REV_AT_EPOCH":45998,"BSTAR":0.00016728622,"MEAN_MOTION_DOT":5.83e-6,"MEAN_MOTION_DDOT":0},{"OBJECT_NAME":"IRIDIUM 128","OBJECT_ID":"2017-039J","EPOCH":"2026-03-04T11:40:42.626208","MEAN_MOTION":14.34217818,"ECCENTRICITY":0.00020487,"INCLINATION":86.3909,"RA_OF_ASC_NODE":68.9227,"ARG_OF_PERICENTER":95.1451,"MEAN_ANOMALY":264.9978,"EPHEMERIS_TYPE":0,"CLASSIFICATION_TYPE":"U","NORAD_CAT_ID":42811,"ELEMENT_SET_NO":999,"REV_AT_EPOCH":45497,"BSTAR":7.755917e-6,"MEAN_MOTION_DOT":4.2e-7,"MEAN_MOTION_DDOT":0},{"OBJECT_NAME":"IRIDIUM 121","OBJECT_ID":"2017-039K","EPOCH":"2026-03-04T10:40:58.939104","MEAN_MOTION":14.34217397,"ECCENTRICITY":0.00021013,"INCLINATION":86.3962,"RA_OF_ASC_NODE":37.4302,"ARG_OF_PERICENTER":90.1164,"MEAN_ANOMALY":270.0273,"EPHEMERIS_TYPE":0,"CLASSIFICATION_TYPE":"U","NORAD_CAT_ID":42812,"ELEMENT_SET_NO":999,"REV_AT_EPOCH":45481,"BSTAR":-1.0851029e-5,"MEAN_MOTION_DOT":-1.1e-7,"MEAN_MOTION_DDOT":0},{"OBJECT_NAME":"IRIDIUM 133","OBJECT_ID":"2017-061A","EPOCH":"2026-03-04T14:06:50.675328","MEAN_MOTION":14.34217619,"ECCENTRICITY":0.00021424,"INCLINATION":86.3911,"RA_OF_ASC_NODE":68.9956,"ARG_OF_PERICENTER":90.4031,"MEAN_ANOMALY":269.741,"EPHEMERIS_TYPE":0,"CLASSIFICATION_TYPE":"U","NORAD_CAT_ID":42955,"ELEMENT_SET_NO":999,"REV_AT_EPOCH":43978,"BSTAR":2.383921e-6,"MEAN_MOTION_DOT":2.6e-7,"MEAN_MOTION_DDOT":0},{"OBJECT_NAME":"IRIDIUM 100","OBJECT_ID":"2017-061B","EPOCH":"2026-03-04T12:17:14.622720","MEAN_MOTION":14.34217431,"ECCENTRICITY":0.00020357,"INCLINATION":86.3909,"RA_OF_ASC_NODE":68.9486,"ARG_OF_PERICENTER":90.1306,"MEAN_ANOMALY":270.0124,"EPHEMERIS_TYPE":0,"CLASSIFICATION_TYPE":"U","NORAD_CAT_ID":42956,"ELEMENT_SET_NO":999,"REV_AT_EPOCH":43977,"BSTAR":-3.400974e-6,"MEAN_MOTION_DOT":1.0e-7,"MEAN_MOTION_DDOT":0},{"OBJECT_NAME":"IRIDIUM 122","OBJECT_ID":"2017-061C","EPOCH":"2026-03-04T11:31:34.400064","MEAN_MOTION":14.34218167,"ECCENTRICITY":0.00021137,"INCLINATION":86.3909,"RA_OF_ASC_NODE":68.9616,"ARG_OF_PERICENTER":87.981,"MEAN_ANOMALY":272.1628,"EPHEMERIS_TYPE":0,"CLASSIFICATION_TYPE":"U","NORAD_CAT_ID":42957,"ELEMENT_SET_NO":999,"REV_AT_EPOCH":43977,"BSTAR":2.8863579e-5,"MEAN_MOTION_DOT":1.01e-6,"MEAN_MOTION_DDOT":0},{"OBJECT_NAME":"IRIDIUM 129","OBJECT_ID":"2017-061D","EPOCH":"2026-03-04T12:08:06.655776","MEAN_MOTION":14.34218283,"ECCENTRICITY":0.00025523,"INCLINATION":86.391,"RA_OF_ASC_NODE":69.017,"ARG_OF_PERICENTER":87.0712,"MEAN_ANOMALY":273.0775,"EPHEMERIS_TYPE":0,"CLASSIFICATION_TYPE":"U","NORAD_CAT_ID":42958,"ELEMENT_SET_NO":999,"REV_AT_EPOCH":43979,"BSTAR":2.1417139e-5,"MEAN_MOTION_DOT":8.0e-7,"MEAN_MOTION_DDOT":0},{"OBJECT_NAME":"IRIDIUM 119","OBJECT_ID":"2017-061E","EPOCH":"2026-03-04T11:22:26.669856","MEAN_MOTION":14.34217777,"ECCENTRICITY":0.00022401,"INCLINATION":86.3911,"RA_OF_ASC_NODE":69.0255,"ARG_OF_PERICENTER":85.8726,"MEAN_ANOMALY":274.2726,"EPHEMERIS_TYPE":0,"CLASSIFICATION_TYPE":"U","NORAD_CAT_ID":42959,"ELEMENT_SET_NO":999,"REV_AT_EPOCH":43980,"BSTAR":1.671752e-6,"MEAN_MOTION_DOT":2.4e-7,"MEAN_MOTION_DDOT":0},{"OBJECT_NAME":"IRIDIUM 107","OBJECT_ID":"2017-061F","EPOCH":"2026-03-04T11:49:50.568096","MEAN_MOTION":14.34218019,"ECCENTRICITY":0.00018894,"INCLINATION":86.3911,"RA_OF_ASC_NODE":69.0383,"ARG_OF_PERICENTER":86.3732,"MEAN_ANOMALY":273.768,"EPHEMERIS_TYPE":0,"CLASSIFICATION_TYPE":"U","NORAD_CAT_ID":42960,"ELEMENT_SET_NO":999,"REV_AT_EPOCH":43981,"BSTAR":1.254204e-5,"MEAN_MOTION_DOT":5.5e-7,"MEAN_MOTION_DDOT":0},{"OBJECT_NAME":"IRIDIUM 132","OBJECT_ID":"2017-061G","EPOCH":"2026-03-04T11:58:58.541952","MEAN_MOTION":14.34218153,"ECCENTRICITY":0.0002099,"INCLINATION":86.391,"RA_OF_ASC_NODE":69.0157,"ARG_OF_PERICENTER":90.1542,"MEAN_ANOMALY":269.9894,"EPHEMERIS_TYPE":0,"CLASSIFICATION_TYPE":"U","NORAD_CAT_ID":42961,"ELEMENT_SET_NO":999,"REV_AT_EPOCH":43981,"BSTAR":2.58942e-5,"MEAN_MOTION_DOT":9.2e-7,"MEAN_MOTION_DDOT":0},{"OBJECT_NAME":"IRIDIUM 136","OBJECT_ID":"2017-061H","EPOCH":"2026-03-04T11:04:10.623648","MEAN_MOTION":14.34217636,"ECCENTRICITY":0.00020508,"INCLINATION":86.3909,"RA_OF_ASC_NODE":69.0379,"ARG_OF_PERICENTER":87.0912,"MEAN_ANOMALY":273.0518,"EPHEMERIS_TYPE":0,"CLASSIFICATION_TYPE":"U","NORAD_CAT_ID":42962,"ELEMENT_SET_NO":999,"REV_AT_EPOCH":43982,"BSTAR":-5.817052e-6,"MEAN_MOTION_DOT":3.0e-8,"MEAN_MOTION_DDOT":0},{"OBJECT_NAME":"IRIDIUM 139","OBJECT_ID":"2017-061J","EPOCH":"2026-03-04T11:13:18.666624","MEAN_MOTION":14.34217697,"ECCENTRICITY":0.00020832,"INCLINATION":86.3912,"RA_OF_ASC_NODE":69.0954,"ARG_OF_PERICENTER":90.842,"MEAN_ANOMALY":269.3015,"EPHEMERIS_TYPE":0,"CLASSIFICATION_TYPE":"U","NORAD_CAT_ID":42963,"ELEMENT_SET_NO":999,"REV_AT_EPOCH":43983,"BSTAR":-1.987964e-6,"MEAN_MOTION_DOT":1.4e-7,"MEAN_MOTION_DDOT":0},{"OBJECT_NAME":"IRIDIUM 125","OBJECT_ID":"2017-061K","EPOCH":"2026-03-04T10:55:02.565984","MEAN_MOTION":14.34217986,"ECCENTRICITY":0.00020109,"INCLINATION":86.3913,"RA_OF_ASC_NODE":69.1601,"ARG_OF_PERICENTER":74.9335,"MEAN_ANOMALY":285.2083,"EPHEMERIS_TYPE":0,"CLASSIFICATION_TYPE":"U","NORAD_CAT_ID":42964,"ELEMENT_SET_NO":999,"REV_AT_EPOCH":43984,"BSTAR":1.0745668e-5,"MEAN_MOTION_DOT":5.0e-7,"MEAN_MOTION_DDOT":0},{"OBJECT_NAME":"IRIDIUM 135","OBJECT_ID":"2017-083A","EPOCH":"2026-03-04T08:37:19.596576","MEAN_MOTION":14.34218606,"ECCENTRICITY":0.00021744,"INCLINATION":86.4018,"RA_OF_ASC_NODE":5.8189,"ARG_OF_PERICENTER":86.1435,"MEAN_ANOMALY":274.0009,"EPHEMERIS_TYPE":0,"CLASSIFICATION_TYPE":"U","NORAD_CAT_ID":43070,"ELEMENT_SET_NO":999,"REV_AT_EPOCH":42912,"BSTAR":0.00014144852,"MEAN_MOTION_DOT":4.16e-6,"MEAN_MOTION_DDOT":0},{"OBJECT_NAME":"IRIDIUM 138","OBJECT_ID":"2017-083B","EPOCH":"2026-03-04T07:33:23.167872","MEAN_MOTION":14.34218026,"ECCENTRICITY":0.00023609,"INCLINATION":86.4031,"RA_OF_ASC_NODE":5.517,"ARG_OF_PERICENTER":77.1516,"MEAN_ANOMALY":282.9944,"EPHEMERIS_TYPE":0,"CLASSIFICATION_TYPE":"U","NORAD_CAT_ID":43071,"ELEMENT_SET_NO":999,"REV_AT_EPOCH":42910,"BSTAR":1.4145899e-5,"MEAN_MOTION_DOT":5.9e-7,"MEAN_MOTION_DDOT":0},{"OBJECT_NAME":"IRIDIUM 116","OBJECT_ID":"2017-083C","EPOCH":"2026-03-04T08:28:11.148384","MEAN_MOTION":14.34217955,"ECCENTRICITY":0.00019871,"INCLINATION":86.4023,"RA_OF_ASC_NODE":5.8092,"ARG_OF_PERICENTER":93.4332,"MEAN_ANOMALY":266.7091,"EPHEMERIS_TYPE":0,"CLASSIFICATION_TYPE":"U","NORAD_CAT_ID":43072,"ELEMENT_SET_NO":999,"REV_AT_EPOCH":42914,"BSTAR":1.2157314e-5,"MEAN_MOTION_DOT":5.4e-7,"MEAN_MOTION_DDOT":0},{"OBJECT_NAME":"IRIDIUM 130","OBJECT_ID":"2017-083D","EPOCH":"2026-03-04T07:42:31.114944","MEAN_MOTION":14.34217532,"ECCENTRICITY":0.00019153,"INCLINATION":86.4021,"RA_OF_ASC_NODE":6.0866,"ARG_OF_PERICENTER":88.2372,"MEAN_ANOMALY":271.9043,"EPHEMERIS_TYPE":0,"CLASSIFICATION_TYPE":"U","NORAD_CAT_ID":43073,"ELEMENT_SET_NO":999,"REV_AT_EPOCH":42908,"BSTAR":5.1675329e-5,"MEAN_MOTION_DOT":1.64e-6,"MEAN_MOTION_DDOT":0}]
